NORAD_CAT_ID,OBJECT_NAME,OBJECT_TYPE,EPOCH,MEAN_MOTION,ECCENTRICITY,INCLINATION,RA_OF_ASC_NODE,ARG_OF_PERICENTER,MEAN_ANOMALY,BSTAR,MEAN_MOTION_DOT,MEAN_MOTION_DDOT,TLE_LINE0,TLE_LINE1,TLE_LINE2,SEMIMAJOR_AXIS,PERIOD,APOGEE,PERIGEE,DECAYED
56478.0,STARLINK-6041,PAYLOAD,2023-10-08 11:36:56,14.99308915,0.0002222,70.0009,191.3302,288.2647,71.827,-2.4706e-05,-3.96e-06,0.0,0 STARLINK-6041,1 56478U 23064AG  23281.48398516 -.00000396  00000-0 -24706-4 0  9998,2 56478  70.0009 191.3302 0002222 288.2647  71.8270 14.99308915 23449,6947.167,96.044,570.576,567.489,0.0
56478.0,STARLINK-6041,PAYLOAD,2023-10-08 18:01:28,14.99125808,0.0001575,70.0007,190.6583,261.5536,98.5445,-0.0017161,-0.00020933,0.0,0 STARLINK-6041,1 56478U 23064AG  23281.75102628 -.00020933  00000-0 -17161-2 0  9999,2 56478  70.0007 190.6583 0001575 261.5536  98.5445 14.99125808 23843,6947.733,96.056,570.692,568.504,0.0
56478.0,STARLINK-6041,PAYLOAD,2023-10-08 21:13:57,14.98887041,0.00028,70.0005,190.3218,267.112,92.9719,-0.0042235,-0.00050851,0.0,0 STARLINK-6041,1 56478U 23064AG  23281.88469048 -.00050851  00000-0 -42235-2 0  9997,2 56478  70.0005 190.3218 0002800 267.1120  92.9719 14.98887041 23504,6948.471,96.071,572.281,568.39,0.0
56478.0,STARLINK-6041,PAYLOAD,2023-10-09 02:02:23,14.9877503,0.0002777,69.9997,189.8154,266.4289,93.6552,-0.0052979,-0.00063464,0.0,0 STARLINK-6041,1 56478U 23064AG  23282.08499172 -.00063464  00000-0 -52979-2 0  9991,2 56478  69.9997 189.8154 0002777 266.4289  93.6552 14.98775030 23893,6948.817,96.078,572.612,568.752,0.0
56478.0,STARLINK-6041,PAYLOAD,2023-10-09 11:39:02,14.98733682,0.0002877,69.9996,188.8055,269.6425,90.4405,-0.0052492,-0.0006282,0.0,0 STARLINK-6041,1 56478U 23064AG  23282.48544768 -.00062820  00000-0 -52492-2 0  9992,2 56478  69.9996 188.8055 0002877 269.6425  90.4405 14.98733682 23595,6948.945,96.081,572.809,568.811,0.0
56478.0,STARLINK-6041,PAYLOAD,2023-10-09 18:03:29,14.98702227,0.0002882,69.9997,188.1322,265.126,94.957,-0.0051253,-0.00061303,0.0,0 STARLINK-6041,1 56478U 23064AG  23282.75242729 -.00061303  00000-0 -51253-2 0  9993,2 56478  69.9997 188.1322 0002882 265.1260  94.9570 14.98702227 23997,6949.042,96.083,572.91,568.904,0.0
56478.0,STARLINK-6041,PAYLOAD,2023-10-09 21:15:43,14.98690454,0.0002855,69.9998,187.7956,265.56,94.5233,-0.0050688,-0.00060616,0.0,0 STARLINK-6041,1 56478U 23064AG  23282.88591869 -.00060616  00000-0 -50688-2 0  9996,2 56478  69.9998 187.7956 0002855 265.5600  94.5233 14.98690454 23651,6949.078,96.084,572.927,568.959,0.0
56478.0,STARLINK-6041,PAYLOAD,2023-10-10 11:40:46,14.98638675,0.0002926,69.9993,186.28,273.9002,86.1823,-0.004793,-0.00057273,0.0,0 STARLINK-6041,1 56478U 23064AG  23283.48665130 -.00057273  00000-0 -47930-2 0  9997,2 56478  69.9993 186.2800 0002926 273.9002  86.1823 14.98638675 23745,6949.239,96.087,573.137,569.07,0.0
56478.0,STARLINK-6041,PAYLOAD,2023-10-10 18:05:17,14.98510764,0.0002088,69.9994,185.6064,284.2768,75.8159,-0.0029419,-0.00035182,0.0,0 STARLINK-6041,1 56478U 23064AG  23283.75367870 -.00035182  00000-0 -29419-2 0  9994,2 56478  69.9994 185.6064 0002088 284.2768  75.8159 14.98510764 24144,6949.634,96.095,572.95,570.048,0.0
56478.0,STARLINK-6041,PAYLOAD,2023-10-10 21:17:33,14.98496317,0.0002521,69.9996,185.2696,265.7603,94.3268,-0.0030099,-0.00035976,0.0,0 STARLINK-6041,1 56478U 23064AG  23283.88719408 -.00035976  00000-0 -30099-2 0  9993,2 56478  69.9996 185.2696 0002521 265.7603  94.3268 14.98496317 23803,6949.679,96.096,573.296,569.792,0.0
56478.0,STARLINK-6041,PAYLOAD,2023-10-11 06:00:00,14.98328019,0.0002955,70.0015,184.3557,278.7043,237.8016,0.00021915,2.523e-05,0.0,0 STARLINK-6041,1 56478U 23064AG  23284.25001157  .00002523  00000-0  21915-3 0  9998,2 56478  70.0015 184.3557 0002955 278.7043 237.8016 14.98328019 24211,6950.199,96.107,574.118,570.01,0.0
56478.0,STARLINK-6041,PAYLOAD,2023-10-11 14:00:01,14.98289865,0.0002951,70.0017,183.5155,271.6069,242.3827,0.0072112,0.00086935,0.0,0 STARLINK-6041,1 56478U 23064AG  23284.58334491  .00086935  00000-0  72112-2 0  9997,2 56478  70.0017 183.5155 0002951 271.6069 242.3827 14.98289865  5871,6950.317,96.11,574.233,570.131,0.0
56478.0,STARLINK-6041,PAYLOAD,2023-10-12 03:44:07,14.98336864,0.000276,69.9993,182.0727,273.0483,87.036,7.2611e-05,7.74e-06,0.0,0 STARLINK-6041,1 56478U 23064AG  23285.15563658  .00000774  00000-0  72611-4 0  9993,2 56478  69.9993 182.0727 0002760 273.0483  87.0360 14.98336864 24356,6950.172,96.107,573.955,570.118,0.0
56478.0,STARLINK-6041,PAYLOAD,2023-10-12 19:45:28,14.98325126,0.0002545,69.9995,180.3877,274.5683,85.5185,9.6274e-05,1.056e-05,0.0,0 STARLINK-6041,1 56478U 23064AG  23285.82324310  .00001056  00000-0  96274-4 0  9992,2 56478  69.9995 180.3877 0002545 274.5683  85.5185 14.98325126 24452,6950.208,96.107,573.842,570.304,0.0
56478.0,STARLINK-6041,PAYLOAD,2023-10-12 21:21:36,14.98326088,0.000248,69.9997,180.2196,267.5156,92.5719,0.00010259,1.131e-05,0.0,0 STARLINK-6041,1 56478U 23064AG  23285.89000215  .00001131  00000-0  10259-3 0  9996,2 56478  69.9997 180.2196 0002480 267.5156  92.5719 14.98326088 24103,6950.205,96.107,573.794,570.346,0.0
56478.0,STARLINK-6041,PAYLOAD,2023-10-13 10:10:40,14.98333809,0.0002756,70.0,178.8709,286.9179,73.1677,5.642e-06,-2.6e-07,0.0,0 STARLINK-6041,1 56478U 23064AG  23286.42407975 -.00000026  00000-0  56420-5 0  9995,2 56478  70.0000 178.8709 0002756 286.9179  73.1677 14.98333809 24185,6950.181,96.107,573.962,570.131,0.0
56478.0,STARLINK-6041,PAYLOAD,2023-10-13 19:47:29,14.9832841,0.0002507,70.0001,177.863,272.6387,87.4485,-4.9726e-06,-1.52e-06,0.0,0 STARLINK-6041,1 56478U 23064AG  23286.82464318 -.00000152  00000-0 -49726-5 0  9995,2 56478  70.0001 177.8630 0002507 272.6387  87.4485 14.98328410 24609,6950.198,96.107,573.805,570.32,0.0
56478.0,STARLINK-6041,PAYLOAD,2023-10-13 21:23:37,14.98329305,0.000244,70.0001,177.6947,270.8878,89.2002,-1.336e-05,-2.52e-06,0.0,0 STARLINK-6041,1 56478U 23064AG  23286.89140279 -.00000252  00000-0 -13360-4 0  9994,2 56478  70.0001 177.6947 0002440 270.8878  89.2002 14.98329305 24259,6950.195,96.107,573.756,570.364,0.0
56478.0,STARLINK-6041,PAYLOAD,2023-10-14 02:12:00,14.98338789,0.0002636,69.9994,177.1903,267.4556,92.6302,5.8863e-05,6.1e-06,0.0,0 STARLINK-6041,1 56478U 23064AG  23287.09167394  .00000610  00000-0  58863-4 0  9997,2 56478  69.9994 177.1903 0002636 267.4556  92.6302 14.98338789 24646,6950.166,96.106,573.863,570.199,0.0
56478.0,STARLINK-6041,PAYLOAD,2023-10-14 19:49:30,14.98323237,0.0003042,69.9992,175.34,264.7509,95.3303,-0.00016259,-2.032e-05,0.0,0 STARLINK-6041,1 56478U 23064AG  23287.82604994 -.00002032  00000-0 -16259-3 0  9994,2 56478  69.9992 175.3400 0003042 264.7509  95.3303 14.98323237 24751,6950.214,96.107,574.193,569.965,0.0
56478.0,STARLINK-6041,PAYLOAD,2023-10-14 21:25:38,14.98322596,0.0002996,69.9995,175.1721,264.6094,95.4723,-0.00015755,-1.972e-05,0.0,0 STARLINK-6041,1 56478U 23064AG  23287.89281062 -.00001972  00000-0 -15755-3 0  9990,2 56478  69.9995 175.1721 0002996 264.6094  95.4723 14.98322596 24409,6950.216,96.107,574.163,569.999,0.0
56478.0,STARLINK-6041,PAYLOAD,2023-10-15 10:14:43,14.98329253,0.0002908,69.9995,173.8253,268.9382,91.1444,-0.00010588,-1.356e-05,0.0,0 STARLINK-6041,1 56478U 23064AG  23288.42688687 -.00001356  00000-0 -10588-3 0  9999,2 56478  69.9995 173.8253 0002908 268.9382  91.1444 14.98329253 24842,6950.195,96.107,574.081,570.039,0.0
56478.0,STARLINK-6041,PAYLOAD,2023-10-15 21:27:39,14.98329089,0.0002995,69.9995,172.6468,271.2228,88.8588,3.99e-05,3.83e-06,0.0,0 STARLINK-6041,1 56478U 23064AG  23288.89420338  .00000383  00000-0  39900-4 0  9994,2 56478  69.9995 172.6468 0002995 271.2228  88.8588 14.98329089 24556,6950.196,96.107,574.142,569.979,0.0
56478.0,STARLINK-6041,PAYLOAD,2023-10-16 02:16:02,14.9833736,0.0002888,69.9993,172.1417,269.287,90.7958,5.338e-05,5.44e-06,0.0,0 STARLINK-6041,1 56478U 23064AG  23289.09447733  .00000544  00000-0  53380-4 0  9992,2 56478  69.9993 172.1417 0002888 269.2870  90.7958 14.98337360 24941,6950.17,96.107,574.042,570.028,0.0
56478.0,STARLINK-6041,PAYLOAD,2023-10-16 10:16:43,14.98345087,0.0002959,69.9993,171.3002,268.1965,91.8856,-0.00016049,-2.008e-05,0.0,0 STARLINK-6041,1 56478U 23064AG  23289.42827624 -.00002008  00000-0 -16049-3 0  9999,2 56478  69.9993 171.3002 0002959 268.1965  91.8856 14.98345087 24634,6950.146,96.106,574.068,569.955,0.0
56478.0,STARLINK-6041,PAYLOAD,2023-10-18 02:20:04,14.98336414,0.0002895,69.9995,167.0926,268.6453,91.4374,-7.4806e-06,-1.82e-06,0.0,0 STARLINK-6041,1 56478U 23064AG  23291.09727729 -.00000182  00000-0 -74806-5 0  9998,2 56478  69.9995 167.0926 0002895 268.6453  91.4374 14.98336414 24881,6950.173,96.107,574.05,570.026,0.0
56478.0,STARLINK-6041,PAYLOAD,2023-10-18 08:44:37,14.98331249,0.0002851,69.9999,166.4193,269.2153,90.8679,-5.3709e-05,-7.34e-06,0.0,0 STARLINK-6041,1 56478U 23064AG  23291.36432095 -.00000734  00000-0 -53709-4 0  9998,2 56478  69.9999 166.4193 0002851 269.2153  90.8679 14.98331249 25287,6950.189,96.107,574.036,570.073,0.0
56478.0,STARLINK-6041,PAYLOAD,2023-10-18 21:33:41,14.98333149,0.0002816,70.0005,165.0729,267.8311,92.2526,-3.1109e-05,-4.64e-06,0.0,0 STARLINK-6041,1 56478U 23064AG  23291.89839833 -.00000464  00000-0 -31109-4 0  9997,2 56478  70.0005 165.0729 0002816 267.8311  92.2526 14.98333149 25007,6950.183,96.107,574.005,570.091,0.0
56478.0,STARLINK-6041,PAYLOAD,2023-10-19 00:45:57,14.98330892,0.00027,70.0009,164.7361,269.1883,90.8966,4.1779e-05,4.06e-06,0.0,0 STARLINK-6041,1 56478U 23064AG  23292.03191587  .00000406  00000-0  41779-4 0  9999,2 56478  70.0009 164.7361 0002700 269.1883  90.8966 14.98330892 25026,6950.19,96.107,573.932,570.179,0.0
56478.0,STARLINK-6041,PAYLOAD,2023-10-19 21:35:42,14.98344964,0.0002688,70.0005,162.5481,266.307,93.7782,-0.00012444,-1.578e-05,0.0,0 STARLINK-6041,1 56478U 23064AG  23292.89979190 -.00001578  00000-0 -12444-3 0  9996,2 56478  70.0005 162.5481 0002688 266.3070  93.7782 14.98344964 25510,6950.147,96.106,573.88,570.143,0.0
